OBJECT_NAME,OBJECT_ID,EPOCH,MEAN_MOTION,ECCENTRICITY,INCLINATION,RA_OF_ASC_NODE,ARG_OF_PERICENTER,MEAN_ANOMALY,EPHEMERIS_TYPE,CLASSIFICATION_TYPE,NORAD_CAT_ID,ELEMENT_SET_NO,REV_AT_EPOCH,BSTAR,MEAN_MOTION_DOT,MEAN_MOTION_DDOT
SCD 1,1993-009B,2026-06-18T18:30:27.055872,14.46119255,.00420113,24.9677,197.7968,154.4157,7.0052,0,U,22490,999,76134,.35293254E-4,.316E-5,0
TECHSAT 1B (GO-32),1998-043D,2026-06-18T21:22:37.142688,14.24428674,.00011384,99.0067,162.6924,159.5485,200.5739,0,U,25397,999,45157,.34782722E-4,.34E-6,0
SCD 2,1998-060A,2026-06-18T21:26:50.446752,14.45526431,.00169013,24.9958,61.6335,140.7395,291.0310,0,U,25504,999,46057,.4620562E-4,.348E-5,0
DLR-TUBSAT,1999-029B,2026-06-18T22:43:23.204640,14.52427183,.00139389,98.6695,165.5088,349.8158,10.2752,0,U,25757,999,43350,.2291034E-4,.45E-6,0
TERRA,1999-068A,2026-06-18T22:22:44.848992,14.61104268,.00017221,97.9455,219.4096,183.5712,224.0689,0,U,25994,999,40986,.66850262E-4,.284E-5,0
MAROC-TUBSAT,2001-056D,2026-06-18T17:52:43.792320,13.70262482,.00203775,99.8083,346.6338,137.3864,237.0308,0,U,27004,999,22640,.8680172E-5,-.39E-6,0
AQUA,2002-022A,2026-06-18T23:10:20.964288,14.62160355,.00010332,98.4277,139.2839,54.2870,341.8646,0,U,27424,999,28353,.12632202E-3,.586E-5,0
SHIYAN-1 (SY-1),2004-012A,2026-06-18T22:40:56.229600,15.33797057,.00054121,97.8688,248.1278,26.9673,333.1848,0,U,28220,999,21136,.31903399E-3,.10348E-3,0
AURA,2004-026A,2026-06-18T21:40:45.075936,14.61331327,.00011915,98.3417,126.3708,76.3610,283.7723,0,U,28376,999,16646,.13279323E-3,.608E-5,0
IRS-P5 (CARTOSAT-1),2005-017A,2026-06-18T19:45:17.375328,14.91052880,.00025376,97.5306,192.8134,77.9455,282.2048,0,U,28649,999,14406,.11481343E-3,.1084E-4,0
SINAH 1,2005-043D,2026-06-18T21:35:01.104576,14.64158574,.00131306,98.2864,304.2314,270.8803,89.0895,0,U,28893,999,10077,.53610687E-4,.233E-5,0
RESURS-DK 1,2006-021A,2026-06-18T21:16:11.860032,15.13223482,.00068838,69.9330,335.1551,291.0960,68.9470,0,U,29228,999,10283,.9469171E-4,.1578E-4,0
ARIRANG-2 (KOMPSAT-2),2006-031A,2026-06-19T00:25:56.358624,14.64661864,.00158917,97.8304,354.3755,69.2589,82.7932,0,U,29268,999,6174,.84050713E-4,.403E-5,0
LAPAN-TUBSAT,2007-001A,2026-06-18T22:30:26.098848,14.85949684,.00120267,98.1338,169.2012,173.7750,186.3616,0,U,29709,999,5141,.12887734E-4,.55E-6,0
HAIYANG-1B,2007-010A,2026-06-18T21:25:38.949024,14.31027257,.00131238,98.3495,151.6719,191.1688,168.9207,0,U,31113,999,88,.41152859E-4,.67E-6,0
COSMO-SKYMED 1,2007-023A,2026-06-19T00:09:17.142624,14.97107162,.00014335,97.8849,1.8773,97.9826,262.1558,0,U,31598,999,3006,.20059596E-3,.2254E-4,0
TERRASAR-X,2007-026A,2026-06-17T14:05:11.304960,15.19150392,.00015603,97.4452,176.2866,90.2646,269.8767,0,U,31698,999,5328,.16539198E-4,.28E-5,0
WORLDVIEW-1 (WV-1),2007-041A,2026-06-18T22:23:52.496736,15.24282367,.00020795,97.3882,289.6517,15.9016,344.2287,0,U,32060,999,4314,.19588739E-3,.4713E-4,0
YAOGAN-3,2007-055A,2026-06-18T22:33:01.216224,14.90783716,.00018049,97.8146,199.7999,80.9725,279.1698,0,U,32289,999,613,.75323604E-4,.685E-5,0
COSMO-SKYMED 2,2007-059A,2026-06-18T23:36:42.925824,14.82156253,.0001355,97.8886,353.5557,87.8582,272.2787,0,U,32376,999,227,.42283209E-4,.284E-5,0
RADARSAT-2,2007-061A,2026-06-18T23:55:40.595232,14.29982002,.00013078,98.5773,176.9038,85.2227,274.9105,0,U,32382,999,96621,.6890749E-5,-.26E-6,0
CARTOSAT-2A,2008-021A,2026-06-18T22:34:23.145888,14.79239357,.00132248,97.7627,218.5893,103.7335,256.5350,0,U,32783,999,97906,.16647654E-4,.74E-6,0
HUANJING 1A (HJ-1A),2008-041A,2026-06-18T23:41:05.465184,14.83989981,.00201294,97.6681,155.7559,129.2708,231.0296,0,U,33320,999,95867,.14091483E-3,.1125E-4,0
HUANJING 1B (HJ-1B),2008-041B,2026-06-18T22:57:43.871328,14.83318556,.00361922,97.6519,158.8934,175.0667,185.0911,0,U,33321,999,95867,.33280295E-4,.223E-5,0
GEOEYE 1,2008-042A,2026-06-18T22:16:23.070720,14.64727086,.00053441,98.1236,243.8373,65.4760,294.7000,0,U,33331,999,95040,.74027563E-4,.347E-5,0
THEOS,2008-049A,2026-06-19T00:17:23.698176,14.20132188,.00012033,98.5566,227.2367,80.8953,279.2360,0,U,33396,999,91822,-.96182572E-4,-.247E-5,0
COSMO-SKYMED 3,2008-054A,2026-06-18T22:27:47.649024,15.06963993,.00140299,97.8281,28.5351,260.3244,99.6399,0,U,33412,999,95720,.21375819E-3,.3138E-4,0
YAOGAN-4,2008-061A,2026-06-18T18:52:08.290848,14.83202650,.00156803,97.9307,103.2847,67.7329,292.5545,0,U,33446,999,94590,.10086398E-3,.771E-5,0
GOSAT (IBUKI),2009-002A,2026-06-18T18:35:36.494880,14.67541014,.00015393,98.0893,280.8363,85.1901,274.9479,0,U,33492,999,93169,.16046425E-3,.862E-5,0
DEIMOS-1,2009-041A,2026-06-18T21:10:08.713920,14.75240271,.00017198,97.7405,327.0355,128.9607,231.1756,0,U,35681,999,90713,.11943112E-3,.76E-5,0
