SCD 1                   
1 22490U 93009B   26169.77114648  .00000316  00000+0  35293-4 0  9995
2 22490  24.9677 197.7968 0042011 154.4157   7.0052 14.46119255761349
TECHSAT 1B (GO-32)      
1 25397U 98043D   26169.89070767  .00000034  00000+0  34783-4 0  9993
2 25397  99.0067 162.6924 0001138 159.5485 200.5739 14.24428674451579
SCD 2                   
1 25504U 98060A   26169.89363943  .00000348  00000+0  46206-4 0  9994
2 25504  24.9958  61.6335 0016901 140.7395 291.0310 14.45526431460578
DLR-TUBSAT              
1 25757U 99029B   26169.94679635  .00000045  00000+0  22910-4 0  9994
2 25757  98.6695 165.5088 0013938 349.8158  10.2752 14.52427183433505
TERRA                   
1 25994U 99068A   26169.93246353  .00000284  00000+0  66850-4 0  9992
2 25994  97.9455 219.4096 0001722 183.5712 224.0689 14.61104268409861
MAROC-TUBSAT            
1 27004U 01056D   26169.74495130 -.00000039  00000+0  86802-5 0  9993
2 27004  99.8083 346.6338 0020377 137.3864 237.0308 13.70262482226408
AQUA                    
1 27424U 02022A   26169.96552042  .00000586  00000+0  12632-3 0  9997
2 27424  98.4277 139.2839 0001033  54.2870 341.8646 14.62160355283532
SHIYAN-1 (SY-1)         
1 28220U 04012A   26169.94509525  .00010348  00000+0  31903-3 0  9998
2 28220  97.8688 248.1278 0005412  26.9673 333.1848 15.33797057211369
AURA                    
1 28376U 04026A   26169.90329949  .00000608  00000+0  13279-3 0  9995
2 28376  98.3417 126.3708 0001191  76.3610 283.7723 14.61331327166468
IRS-P5 (CARTOSAT-1)     
1 28649U 05017A   26169.82311777  .00001084  00000+0  11481-3 0  9992
2 28649  97.5306 192.8134 0002537  77.9455 282.2048 14.91052880144062
SINAH 1                 
1 28893U 05043D   26169.89931834  .00000233  00000+0  53611-4 0  9998
2 28893  98.2864 304.2314 0013130 270.8803  89.0895 14.64158574100771
RESURS-DK 1             
1 29228U 06021A   26169.88624838  .00001578  00000+0  94692-4 0  9997
2 29228  69.9330 335.1551 0006883 291.0960  68.9470 15.13223482102839
ARIRANG-2 (KOMPSAT-2)   
1 29268U 06031A   26170.01801341  .00000403  00000+0  84051-4 0  9999
2 29268  97.8304 354.3755 0015891  69.2589  82.7932 14.64661864 61740
LAPAN-TUBSAT            
1 29709U 07001A   26169.93780207  .00000055  00000+0  12888-4 0  9995
2 29709  98.1338 169.2012 0012026 173.7750 186.3616 14.85949684 51413
HAIYANG-1B              
1 31113U 07010A   26169.89281191  .00000067  00000+0  41153-4 0  9990
2 31113  98.3495 151.6719 0013123 191.1688 168.9207 14.31027257   884
COSMO-SKYMED 1          
1 31598U 07023A   26170.00644841  .00002254  00000+0  20060-3 0  9994
2 31598  97.8849   1.8773 0001433  97.9826 262.1558 14.97107162 30067
TERRASAR-X              
1 31698U 07026A   26168.58693640  .00000280  00000+0  16539-4 0  9993
2 31698  97.4452 176.2866 0001560  90.2646 269.8767 15.19150392 53284
WORLDVIEW-1 (WV-1)      
1 32060U 07041A   26169.93324649  .00004713  00000+0  19589-3 0  9996
2 32060  97.3882 289.6517 0002079  15.9016 344.2287 15.24282367 43140
YAOGAN-3                
1 32289U 07055A   26169.93959741  .00000685  00000+0  75324-4 0  9995
2 32289  97.8146 199.7999 0001804  80.9725 279.1698 14.90783716  6136
COSMO-SKYMED 2          
1 32376U 07059A   26169.98383016  .00000284  00000+0  42283-4 0  9990
2 32376  97.8886 353.5557 0001355  87.8582 272.2787 14.82156253  2277
RADARSAT-2              
1 32382U 07061A   26169.99699763 -.00000026  00000+0  68907-5 0  9997
2 32382  98.5773 176.9038 0001307  85.2227 274.9105 14.29982002966219
CARTOSAT-2A             
1 32783U 08021A   26169.94054567  .00000074  00000+0  16648-4 0  9997
2 32783  97.7627 218.5893 0013224 103.7335 256.5350 14.79239357979060
HUANJING 1A (HJ-1A)     
1 33320U 08041A   26169.98686881  .00001125  00000+0  14091-3 0  9998
2 33320  97.6681 155.7559 0020129 129.2708 231.0296 14.83989981958678
HUANJING 1B (HJ-1B)     
1 33321U 08041B   26169.95675777  .00000223  00000+0  33280-4 0  9998
2 33321  97.6519 158.8934 0036192 175.0667 185.0911 14.83318556958676
GEOEYE 1                
1 33331U 08042A   26169.92804480  .00000347  00000+0  74028-4 0  9994
2 33331  98.1236 243.8373 0005344  65.4760 294.7000 14.64727086950403
THEOS                   
1 33396U 08049A   26170.01207984 -.00000247  00000+0 -96183-4 0  9997
2 33396  98.5566 227.2367 0001203  80.8953 279.2360 14.20132188918224
COSMO-SKYMED 3          
1 33412U 08054A   26169.93596816  .00003138  00000+0  21376-3 0  9997
2 33412  97.8281  28.5351 0014029 260.3244  99.6399 15.06963993957200
YAOGAN-4                
1 33446U 08061A   26169.78620707  .00000771  00000+0  10086-3 0  9998
2 33446  97.9307 103.2847 0015680  67.7329 292.5545 14.83202650945906
GOSAT (IBUKI)           
1 33492U 09002A   26169.77472795  .00000862  00000+0  16046-3 0  9999
2 33492  98.0893 280.8363 0001539  85.1901 274.9479 14.67541014931695
DEIMOS-1                
1 35681U 09041A   26169.88204530  .00000760  00000+0  11943-3 0  9994
2 35681  97.7405 327.0355 0001719 128.9607 231.1756 14.75240271907131
